SIRIUS-1                
1 26390U 00035A   08210.04818939  .00000072  00000-0  10000-3 0  3336
2 26390  61.8553 257.7306 2731308 270.8535  58.5694  1.00276332 29590
SIRIUS-2                
1 26483U 00051A   08209.70917970  .00000013  00000-0  10000-3 0   672
2 26483  63.6706 137.7134 2712200 268.6420  60.5181  1.00281760 28928
SIRIUS-3                
1 26626U 00077A   08206.39293234 -.00000121  00000-0  10000-3 0  2720
2 26626  63.8315  17.5464 2670356 270.0731  59.7279  1.00282946 28029
XM-2 (ROCK)             
1 26724U 01012A   08211.21181936 -.00000211  00000-0  10000-3 0  4363
2 26724   0.0999 268.7530 0000802 183.9649 205.5798  1.00272182 27054
XM-1 (ROLL)             
1 26761U 01018A   08210.31942706 -.00000207  00000-0  10000-3 0  2172
2 26761   0.0878 267.3748 0001104 211.0671 217.6832  1.00269007 26516
XM-3 (RHYTHM)           
1 28626U 05008A   08208.14463263 -.00000199  00000-0  10000-3 0  4870
2 28626   0.0477  58.9855 0000750 110.3197 101.8531  1.00270681 12533
XM-4 (BLUES)            
1 29520U 06049A   08209.39968932 -.00000023  00000-0  10000-3 0  2493
2 29520   0.0023 330.3778 0000225  19.1795 344.7954  1.00272391  6486
